[{"OBJECT_NAME":"STARLINK-5744","OBJECT_ID":"2023-020AJ","EPOCH":"2026-03-09T22:00:01.999584","MEAN_MOTION":15.10007874,"ECCENTRICITY":0.00010298,"INCLINATION":42.9995,"RA_OF_ASC_NODE":2.7509,"ARG_OF_PERICENTER":246.9542,"MEAN_ANOMALY":20.5186,"EPHEMERIS_TYPE":0,"CLASSIFICATION_TYPE":"U","NORAD_CAT_ID":55601,"ELEMENT_SET_NO":999,"REV_AT_EPOCH":577,"BSTAR":0.0014078131,"MEAN_MOTION_DOT":0.00023133,"MEAN_MOTION_DDOT":0},{"OBJECT_NAME":"OBJECT B","OBJECT_ID":"2025-180B","EPOCH":"2026-03-02T07:51:01.178208","MEAN_MOTION":15.14359033,"ECCENTRICITY":0.0014719,"INCLINATION":97.5099,"RA_OF_ASC_NODE":189.7404,"ARG_OF_PERICENTER":334.9723,"MEAN_ANOMALY":25.0794,"EPHEMERIS_TYPE":0,"CLASSIFICATION_TYPE":"U","NORAD_CAT_ID":65260,"ELEMENT_SET_NO":999,"REV_AT_EPOCH":2948,"BSTAR":0.00032386063,"MEAN_MOTION_DOT":5.888e-5,"MEAN_MOTION_DDOT":0}]
